start=new Date('2022-10-18T00:00:00.000Z').valueOf();
sats=[{"PERIAPSIS":"545.988","NORAD_CAT_ID":"45373","MEAN_MOTION_DDOT":"0.0000000000000","TLE_LINE2":"2 45373  53.0558 329.3828 0001796  49.2343 310.8802 15.06394012142968","GP_ID":"215403305","MEAN_ANOMALY":"310.8802","REF_FRAME":"TEME","OBJECT_ID":"2020-019P","MEAN_MOTION":"15.06394012","APOAPSIS":"548.476","PERIOD":"95.593","LAUNCH_DATE":"2020-03-18","MEAN_ELEMENT_THEORY":"SGP4","RCS_SIZE":"LARGE","OBJECT_TYPE":"PAYLOAD","CLASSIFICATION_TYPE":"U","OBJECT_NAME":"STARLINK-1295","REV_AT_EPOCH":"14296","SEMIMAJOR_AXIS":"6925.367","RA_OF_ASC_NODE":"329.3828","DECAY_DATE":null,"EPHEMERIS_TYPE":"0","FILE":"3619530","TIME_SYSTEM":"UTC","CENTER_NAME":"EARTH","MEAN_MOTION_DOT":"-0.00000301","SITE":"AFETR","COUNTRY_CODE":"US","TLE_LINE1":"1 45373U 20019P   22290.53823763 -.00000301  00000-0 -13034-5 0  9998","BSTAR":"-0.00000130340000","ARG_OF_PERICENTER":"49.2343","EPOCH":"2022-10-17T12:55:03.731232","ELEMENT_SET_NO":"999","INCLINATION":"53.0558","ECCENTRICITY":"0.00017960"},{"CLASSIFICATION_TYPE":"U","OBJECT_TYPE":"PAYLOAD","REV_AT_EPOCH":"14297","OBJECT_NAME":"STARLINK-1300","SITE":"AFETR","MEAN_MOTION_DOT":"0.00007453","FILE":"3620294","EPHEMERIS_TYPE":"0","TIME_SYSTEM":"UTC","CENTER_NAME":"EARTH","DECAY_DATE":null,"RA_OF_ASC_NODE":"329.1054","SEMIMAJOR_AXIS":"6925.347","ECCENTRICITY":"0.00017670","ELEMENT_SET_NO":"999","EPOCH":"2022-10-17T14:25:16.950432","INCLINATION":"53.0553","ARG_OF_PERICENTER":"48.2441","BSTAR":"0.00051870000000","COUNTRY_CODE":"US","TLE_LINE1":"1 45374U 20019Q   22290.60089063  .00007453  00000-0  51870-3 0  9995","MEAN_MOTION_DDOT":"0.0000000000000","NORAD_CAT_ID":"45374","PERIAPSIS":"545.988","OBJECT_ID":"2020-019Q","REF_FRAME":"TEME","MEAN_ANOMALY":"311.8699","GP_ID":"215447083","TLE_LINE2":"2 45374  53.0553 329.1054 0001767  48.2441 311.8699 15.06400489142971","PERIOD":"95.592","APOAPSIS":"548.436","MEAN_MOTION":"15.06400489","RCS_SIZE":"LARGE","MEAN_ELEMENT_THEORY":"SGP4","LAUNCH_DATE":"2020-03-18"},{"EPOCH":"2022-10-17T19:33:08.616384","INCLINATION":"53.0574","ECCENTRICITY":"0.00017660","ELEMENT_SET_NO":"999","ARG_OF_PERICENTER":"51.1308","BSTAR":"-0.00002698800000","TLE_LINE1":"1 45375U 20019R   22290.81468306 -.00000684  00000-0 -26988-4 0  9994","COUNTRY_CODE":"US","MEAN_MOTION_DOT":"-0.00000684","SITE":"AFETR","FILE":"3620294","EPHEMERIS_TYPE":"0","TIME_SYSTEM":"UTC","CENTER_NAME":"EARTH","DECAY_DATE":null,"RA_OF_ASC_NODE":"328.1360","SEMIMAJOR_AXIS":"6925.363","REV_AT_EPOCH":"14300","OBJECT_NAME":"STARLINK-1302","CLASSIFICATION_TYPE":"U","OBJECT_TYPE":"PAYLOAD","RCS_SIZE":"LARGE","MEAN_ELEMENT_THEORY":"SGP4","LAUNCH_DATE":"2020-03-18","PERIOD":"95.592","APOAPSIS":"548.451","MEAN_MOTION":"15.06395194","OBJECT_ID":"2020-019R","REF_FRAME":"TEME","MEAN_ANOMALY":"308.9838","GP_ID":"215445346","TLE_LINE2":"2 45375  53.0574 328.1360 0001766  51.1308 308.9838 15.06395194143001","NORAD_CAT_ID":"45375","MEAN_MOTION_DDOT":"0.0000000000000","PERIAPSIS":"546.005"},{"BSTAR":"0.00014579000000","TLE_LINE1":"1 45376U 20019S   22290.83310344  .00001891  00000-0  14579-3 0  9996","COUNTRY_CODE":"US","EPOCH":"2022-10-17T19:59:40.137216","ECCENTRICITY":"0.00019300","INCLINATION":"53.0547","ELEMENT_SET_NO":"999","ARG_OF_PERICENTER":"45.0400","DECAY_DATE":null,"RA_OF_ASC_NODE":"328.0559","SEMIMAJOR_AXIS":"6925.333","SITE":"AFETR","MEAN_MOTION_DOT":"0.00001891","FILE":"3620294","TIME_SYSTEM":"UTC","EPHEMERIS_TYPE":"0","CENTER_NAME":"EARTH","OBJECT_NAME":"STARLINK-1304","REV_AT_EPOCH":"14300","OBJECT_TYPE":"PAYLOAD","CLASSIFICATION_TYPE":"U","LAUNCH_DATE":"2020-03-18","RCS_SIZE":"LARGE","MEAN_ELEMENT_THEORY":"SGP4","APOAPSIS":"548.534","MEAN_MOTION":"15.06405236","PERIOD":"95.592","MEAN_ANOMALY":"315.0745","GP_ID":"215445596","TLE_LINE2":"2 45376  53.0547 328.0559 0001930  45.0400 315.0745 15.06405236143004","OBJECT_ID":"2020-019S","REF_FRAME":"TEME","PERIAPSIS":"545.861","MEAN_MOTION_DDOT":"0.0000000000000","NORAD_CAT_ID":"45376"},{"TLE_LINE2":"2 45377  53.0557 329.1281 0001944  44.9663 315.1483 15.06402729142973","GP_ID":"215446347","MEAN_ANOMALY":"315.1483","REF_FRAME":"TEME","OBJECT_ID":"2020-019T","PERIAPSIS":"545.859","MEAN_MOTION_DDOT":"0.0000000000000","NORAD_CAT_ID":"45377","LAUNCH_DATE":"2020-03-18","MEAN_ELEMENT_THEORY":"SGP4","RCS_SIZE":"LARGE","MEAN_MOTION":"15.06402729","APOAPSIS":"548.551","PERIOD":"95.592","OBJECT_NAME":"STARLINK-1305","REV_AT_EPOCH":"14297","OBJECT_TYPE":"PAYLOAD","CLASSIFICATION_TYPE":"U","COUNTRY_CODE":"US","TLE_LINE1":"1 45377U 20019T   22290.59352243  .00000825  00000-0  74291-4 0  9998","BSTAR":"0.00007429100000","ARG_OF_PERICENTER":"44.9663","ELEMENT_SET_NO":"999","EPOCH":"2022-10-17T14:14:40.337952","ECCENTRICITY":"0.00019440","INCLINATION":"53.0557","SEMIMAJOR_AXIS":"6925.340","RA_OF_ASC_NODE":"329.1281","DECAY_DATE":null,"FILE":"3620294","TIME_SYSTEM":"UTC","CENTER_NAME":"EARTH","EPHEMERIS_TYPE":"0","SITE":"AFETR","MEAN_MOTION_DOT":"0.00000825"},{"OBJECT_ID":"2020-019U","REF_FRAME":"TEME","GP_ID":"215446583","TLE_LINE2":"2 45378  53.0556 327.9895 0001727  46.8170 313.2963 15.06394721143013","MEAN_ANOMALY":"313.2963","NORAD_CAT_ID":"45378","MEAN_MOTION_DDOT":"0.0000000000000","PERIAPSIS":"546.034","RCS_SIZE":"LARGE","MEAN_ELEMENT_THEORY":"SGP4","LAUNCH_DATE":"2020-03-18","PERIOD":"95.592","APOAPSIS":"548.426","MEAN_MOTION":"15.06394721","REV_AT_EPOCH":"14301","OBJECT_NAME":"STARLINK-1310","CLASSIFICATION_TYPE":"U","OBJECT_TYPE":"PAYLOAD","ELEMENT_SET_NO":"999","ECCENTRICITY":"0.00017270","INCLINATION":"53.0556","EPOCH":"2022-10-17T20:20:54.328128","ARG_OF_PERICENTER":"46.8170","BSTAR":"0.00003622900000","TLE_LINE1":"1 45378U 20019U   22290.84785102  .00000258  00000-0  36229-4 0  9990","COUNTRY_CODE":"US","TIME_SYSTEM":"UTC","FILE":"3620294","CENTER_NAME":"EARTH","EPHEMERIS_TYPE":"0","MEAN_MOTION_DOT":"0.00000258","SITE":"AFETR","RA_OF_ASC_NODE":"327.9895","SEMIMAJOR_AXIS":"6925.365","DECAY_DATE":null},{"ECCENTRICITY":"0.00020060","EPOCH":"2022-10-17T10:52:58.270080","ELEMENT_SET_NO":"999","INCLINATION":"53.0561","ARG_OF_PERICENTER":"50.7181","BSTAR":"0.00003296000000","COUNTRY_CODE":"US","TLE_LINE1":"1 45379U 20019V   22290.45345220  .00000209  00000-0  32960-4 0  9995","FILE":"3619731","TIME_SYSTEM":"UTC","EPHEMERIS_TYPE":"0","CENTER_NAME":"EARTH","MEAN_MOTION_DOT":"0.00000209","SITE":"AFETR","RA_OF_ASC_NODE":"329.7627","SEMIMAJOR_AXIS":"6925.345","DECAY_DATE":null,"REV_AT_EPOCH":"14295","OBJECT_NAME":"STARLINK-1319","CLASSIFICATION_TYPE":"U","OBJECT_TYPE":"PAYLOAD","RCS_SIZE":"LARGE","MEAN_ELEMENT_THEORY":"SGP4","LAUNCH_DATE":"2020-03-18","PERIOD":"95.592","APOAPSIS":"548.599","MEAN_MOTION":"15.06401233","OBJECT_ID":"2020-019V","REF_FRAME":"TEME","GP_ID":"215414750","TLE_LINE2":"2 45379  53.0561 329.7627 0002006  50.7181 309.3985 15.06401233142959","MEAN_ANOMALY":"309.3985","MEAN_MOTION_DDOT":"0.0000000000000","NORAD_CAT_ID":"45379","PERIAPSIS":"545.821"},{"CLASSIFICATION_TYPE":"U","OBJECT_TYPE":"PAYLOAD","REV_AT_EPOCH":"14323","OBJECT_NAME":"STARLINK-1207","TIME_SYSTEM":"UTC","FILE":"3620081","CENTER_NAME":"EARTH","EPHEMERIS_TYPE":"0","SITE":"AFETR","MEAN_MOTION_DOT":"0.00010221","RA_OF_ASC_NODE":"309.7839","SEMIMAJOR_AXIS":"6925.355","DECAY_DATE":null,"INCLINATION":"53.0534","ECCENTRICITY":"0.00023640","EPOCH":"2022-10-17T10:50:18.543264","ELEMENT_SET_NO":"999","ARG_OF_PERICENTER":"35.7929","BSTAR":"0.00070408000000","COUNTRY_CODE":"US","TLE_LINE1":"1 45380U 20019W   22290.45160351  .00010221  00000-0  70408-3 0  9990","NORAD_CAT_ID":"45380","MEAN_MOTION_DDOT":"0.0000000000000","PERIAPSIS":"545.583","OBJECT_ID":"2020-019W","REF_FRAME":"TEME","GP_ID":"215422411","TLE_LINE2":"2 45380  53.0534 309.7839 0002364  35.7929 324.3218 15.06397905143232","MEAN_ANOMALY":"324.3218","PERIOD":"95.592","APOAPSIS":"548.857","MEAN_MOTION":"15.06397905","RCS_SIZE":"LARGE","MEAN_ELEMENT_THEORY":"SGP4","LAUNCH_DATE":"2020-03-18"},{"OBJECT_NAME":"STARLINK-1258","REV_AT_EPOCH":"14324","OBJECT_TYPE":"PAYLOAD","CLASSIFICATION_TYPE":"U","TLE_LINE1":"1 45381U 20019X   22290.59535928  .00001221  00000-0  10085-3 0  9997","COUNTRY_CODE":"US","BSTAR":"0.00010085000000","ARG_OF_PERICENTER":"57.3928","EPOCH":"2022-10-17T14:17:19.041792","INCLINATION":"53.0547","ELEMENT_SET_NO":"999","ECCENTRICITY":"0.00017510","DECAY_DATE":null,"SEMIMAJOR_AXIS":"6925.349","RA_OF_ASC_NODE":"309.1390","SITE":"AFETR","MEAN_MOTION_DOT":"0.00001221","CENTER_NAME":"EARTH","FILE":"3620294","EPHEMERIS_TYPE":"0","TIME_SYSTEM":"UTC","MEAN_ANOMALY":"302.7230","TLE_LINE2":"2 45381  53.0547 309.1390 0001751  57.3928 302.7230 15.06399731143245","GP_ID":"215446847","REF_FRAME":"TEME","OBJECT_ID":"2020-019X","PERIAPSIS":"546.002","MEAN_MOTION_DDOT":"0.0000000000000","NORAD_CAT_ID":"45381","LAUNCH_DATE":"2020-03-18","MEAN_ELEMENT_THEORY":"SGP4","RCS_SIZE":"LARGE","MEAN_MOTION":"15.06399731","APOAPSIS":"548.427","PERIOD":"95.592"},{"OBJECT_NAME":"STARLINK-1264","REV_AT_EPOCH":"14303","OBJECT_TYPE":"PAYLOAD","CLASSIFICATION_TYPE":"U","BSTAR":"0.00116540000000","TLE_LINE1":"1 45382U 20019Y   22290.36166738  .00017755  00000-0  11654-2 0  9993","COUNTRY_CODE":"US","ECCENTRICITY":"0.00031980","INCLINATION":"53.0527","EPOCH":"2022-10-17T08:40:48.061632","ELEMENT_SET_NO":"999","ARG_OF_PERICENTER":"68.0763","DECAY_DATE":null,"RA_OF_ASC_NODE":"310.0346","SEMIMAJOR_AXIS":"6921.291","MEAN_MOTION_DOT":"0.00017755","SITE":"AFETR","TIME_SYSTEM":"UTC","FILE":"3619530","EPHEMERIS_TYPE":"0","CENTER_NAME":"EARTH","MEAN_ANOMALY":"292.0567","GP_ID":"215404055","TLE_LINE2":"2 45382  53.0527 310.0346 0003198  68.0763 292.0567 15.07725013143037","OBJECT_ID":"2020-019Y","REF_FRAME":"TEME","PERIAPSIS":"540.942","NORAD_CAT_ID":"45382","MEAN_MOTION_DDOT":"0.0000000000000","LAUNCH_DATE":"2020-03-18","RCS_SIZE":"LARGE","MEAN_ELEMENT_THEORY":"SGP4","APOAPSIS":"545.369","MEAN_MOTION":"15.07725013","PERIOD":"95.508"}];
